NORAD_CAT_ID,OBJECT_NAME,OBJECT_TYPE,EPOCH,MEAN_MOTION,ECCENTRICITY,INCLINATION,RA_OF_ASC_NODE,ARG_OF_PERICENTER,MEAN_ANOMALY,BSTAR,MEAN_MOTION_DOT,MEAN_MOTION_DDOT,TLE_LINE0,TLE_LINE1,TLE_LINE2,SEMIMAJOR_AXIS,PERIOD,APOGEE,PERIGEE,DECAYED
50180.0,STARLINK-3265,PAYLOAD,2022-05-10 14:00:01,15.08823237,0.0002094,53.2194,49.9506,35.8397,122.9207,0.00039413,5.987e-05,0.0,0 STARLINK-3265,1 50180U 21125AA  22130.58334491  .00005987  00000-0  39413-3 0  9992,2 50180  53.2194  49.9506 0002094  35.8397 122.9207 15.08823237  3604,6917.932,95.439,541.245,538.3480000000002,0.0
50180.0,STARLINK-3265,PAYLOAD,2022-05-10 18:00:00,15.08829578,0.0002106,53.2196,49.2022,39.1904,305.3578,-0.00049646,-8.179e-05,0.0,0 STARLINK-3265,1 50180U 21125AA  22130.75001157 -.00008179  00000-0 -49646-3 0  9998,2 50180  53.2196  49.2022 0002106  39.1904 305.3578 15.08829578  3575,6917.9119999999975,95.438,541.234,538.32,0.0
50180.0,STARLINK-3265,PAYLOAD,2022-05-11 22:00:00,15.08849292,0.0002324,53.2197,43.9664,41.2259,163.8245,-0.0010285,-0.00016624,0.0,0 STARLINK-3265,1 50180U 21125AA  22131.91667824 -.00016624  00000-0 -10285-2 0  9996,2 50180  53.2197  43.9664 0002324  41.2259 163.8245 15.08849292 22493,6917.852,95.437,541.325,538.109,0.0
50180.0,STARLINK-3265,PAYLOAD,2022-05-12 14:00:01,15.0884919,0.0002255,53.2198,40.9728,40.9558,187.3094,0.00042329,6.457e-05,0.0,0 STARLINK-3265,1 50180U 21125AA  22132.58334491  .00006457  00000-0  42329-3 0  9997,2 50180  53.2198  40.9728 0002255  40.9558 187.3094 15.08849190  1300,6917.852,95.437,541.2769999999998,538.1569999999998,0.0
50180.0,STARLINK-3265,PAYLOAD,2022-05-12 20:00:01,15.08859264,0.0002289,53.2202,39.851,41.8663,105.107,-0.00032556,-5.469e-05,0.0,0 STARLINK-3265,1 50180U 21125AA  22132.83334491 -.00005469  00000-0 -32556-3 0  9990,2 50180  53.2202  39.8510 0002289  41.8663 105.1070 15.08859264 22630,6917.821999999999,95.436,541.27,538.1030000000002,0.0
50180.0,STARLINK-3265,PAYLOAD,2022-05-12 22:00:00,15.08859696,0.0002337,53.2201,39.4776,40.3415,199.5357,-0.00052167,-8.586e-05,0.0,0 STARLINK-3265,1 50180U 21125AA  22132.91667824 -.00008586  00000-0 -52167-3 0  9991,2 50180  53.2201  39.4776 0002337  40.3415 199.5357 15.08859696  1307,6917.82,95.436,541.302,538.068,0.0
50180.0,STARLINK-3265,PAYLOAD,2022-05-13 14:00:01,15.08799202,0.0002184,53.2204,36.484,37.5862,225.5142,0.002523,0.0004005,0.0,0 STARLINK-3265,1 50180U 21125AA  22133.58334491  .00040050  00000-0  25230-2 0  9996,2 50180  53.2204  36.4840 0002184  37.5862 225.5142 15.08799202 22742,6918.005,95.44,541.381,538.359,0.0
50180.0,STARLINK-3265,PAYLOAD,2022-05-13 22:00:00,15.08835539,0.000231,53.2201,34.989000000000004,37.5707,237.0906,-0.00079062,-0.00012848,0.0,0 STARLINK-3265,1 50180U 21125AA  22133.91667824 -.00012848  00000-0 -79062-3 0  9991,2 50180  53.2201  34.9890 0002310  37.5707 237.0906 15.08835539  1305,6917.894,95.438,541.357,538.161,0.0
50180.0,STARLINK-3265,PAYLOAD,2022-05-14 06:00:00,15.08831875,0.0002399,53.2193,33.4935,34.8826,251.3581,0.0012344,0.00019408,0.0,0 STARLINK-3265,1 50180U 21125AA  22134.25001157  .00019408  00000-0  12344-2 0  9996,2 50180  53.2193  33.4935 0002399  34.8826 251.3581 15.08831875 22847,6917.905,95.438,541.43,538.111,0.0
50180.0,STARLINK-3265,PAYLOAD,2022-05-14 14:00:01,15.08835313,0.0002169,53.219,31.9955,38.1961,259.6625,0.0014653,0.00023106,0.0,0 STARLINK-3265,1 50180U 21125AA  22134.58334491  .00023106  00000-0  14653-2 0  9997,2 50180  53.2190  31.9955 0002169  38.1961 259.6625 15.08835313  1300,6917.895,95.438,541.26,538.259,0.0
50180.0,STARLINK-3265,PAYLOAD,2022-05-14 22:00:00,15.08855444,0.000227,53.2192,30.5005,35.7093,273.7203,-0.0023401,-0.00037355,0.0,0 STARLINK-3265,1 50180U 21125AA  22134.91667824 -.00037355  00000-0 -23401-2 0  9997,2 50180  53.2192  30.5005 0002270  35.7093 273.7203 15.08855444  1301,6917.833000000001,95.437,541.269,538.128,0.0
50180.0,STARLINK-3265,PAYLOAD,2022-05-15 06:00:00,15.08830607,0.0002307,53.2189,29.0046,32.0767,288.9529,-0.00017468,-3.067e-05,0.0,0 STARLINK-3265,1 50180U 21125AA  22135.25001157 -.00003067  00000-0 -17468-3 0  9996,2 50180  53.2189  29.0046 0002307  32.0767 288.9529 15.08830607 22995,6917.909000000002,95.438,541.37,538.178,0.0
50180.0,STARLINK-3265,PAYLOAD,2022-05-15 14:00:01,15.08812404,0.0002065,53.2191,27.5067,36.0498,296.6423,0.0042169,0.00067416,0.0,0 STARLINK-3265,1 50180U 21125AA  22135.58335648  .00067416  00000-0  42169-2 0  9998,2 50180  53.2191  27.5067 0002065  36.0498 296.6423 15.08812404  1306,6917.965,95.439,541.258,538.401,0.0
50180.0,STARLINK-3265,PAYLOAD,2022-05-15 22:00:00,15.08875894,0.0002194,53.2192,26.0119,33.7375,310.4796,-0.003697,-0.00058706,0.0,0 STARLINK-3265,1 50180U 21125AA  22135.91667824 -.00058706  00000-0 -36970-2 0  9996,2 50180  53.2192  26.0119 0002194  33.7375 310.4796 15.08875894 23102,6917.771,95.435,541.153,538.118,0.0
50180.0,STARLINK-3265,PAYLOAD,2022-05-16 14:00:01,15.08798008,0.0002062,53.2187,23.0179,37.9694,329.4666,0.0039321999999999,0.00062779,0.0,0 STARLINK-3265,1 50180U 21125AA  22136.58334491  .00062779  00000-0  39322-2 0  9998,2 50180  53.2187  23.0179 0002062  37.9694 329.4666 15.08798008 23201,6918.009,95.44,541.3,538.447,0.0
50180.0,STARLINK-3265,PAYLOAD,2022-05-16 22:00:00,15.08856311,0.0002213,53.2188,21.5233,35.8633,343.1412,-0.0029873,-0.0004754,0.0,0 STARLINK-3265,1 50180U 21125AA  22136.91667824 -.00047540  00000-0 -29873-2 0  9995,2 50180  53.2188  21.5233 0002213  35.8633 343.1412 15.08856311  1305,6917.831,95.437,541.226,538.165,0.0
50180.0,STARLINK-3265,PAYLOAD,2022-05-17 06:00:00,15.08833114,0.0002219,53.2181,20.0268,33.3601,357.2407,0.00012055,1.63e-05,0.0,0 STARLINK-3265,1 50180U 21125AA  22137.25001157  .00001630  00000-0  12055-3 0  9997,2 50180  53.2181  20.0268 0002219  33.3601 357.2407 15.08833114 23304,6917.901,95.438,541.302,538.231,0.0
50180.0,STARLINK-3265,PAYLOAD,2022-05-17 14:00:01,15.08829417,0.0002041,53.2181,18.529,38.8887,3.3679,0.00164,0.00025902,0.0,0 STARLINK-3265,1 50180U 21125AA  22137.58335648  .00025902  00000-0  16400-2 0  9993,2 50180  53.2181  18.5290 0002041  38.8887   3.3679 15.08829417  1307,6917.913000000001,95.438,541.19,538.366,0.0
50180.0,STARLINK-3265,PAYLOAD,2022-05-17 22:00:01,15.088354999999998,0.0002258,53.218,17.0343,38.4745,15.3804,-0.00015138,-2.697e-05,0.0,0 STARLINK-3265,1 50180U 21125AA  22137.91668981 -.00002697  00000-0 -15138-3 0  9995,2 50180  53.2180  17.0343 0002258  38.4745  15.3804 15.08835500  1301,6917.894,95.438,541.321,538.197,0.0
50180.0,STARLINK-3265,PAYLOAD,2022-05-18 14:00:01,15.08819052,0.0002022,53.2176,14.0398,39.1621,37.8238,0.0030951,0.00049287,0.0,0 STARLINK-3265,1 50180U 21125AA  22138.58334491  .00049287  00000-0  30951-2 0  9998,2 50180  53.2176  14.0398 0002022  39.1621  37.8238 15.08819052 23503,6917.944,95.439,541.2080000000002,538.411,0.0
50180.0,STARLINK-3265,PAYLOAD,2022-05-18 20:00:01,15.0886467,0.0002109,53.2177,12.9189,36.395,319.2754,-0.0038588,-0.00061223,0.0,0 STARLINK-3265,1 50180U 21125AA  22138.83334491 -.00061223  00000-0 -38588-2 0  9996,2 50180  53.2177  12.9189 0002109  36.3950 319.2754 15.08864670 23549,6917.805,95.436,541.129,538.211,0.0
50180.0,STARLINK-3265,PAYLOAD,2022-05-19 14:00:01,15.0882107,0.0002015,53.2175,9.5505,36.8808,74.9126,0.0010043,0.00015723,0.0,0 STARLINK-3265,1 50180U 21125AA  22139.58335648  .00015723  00000-0  10043-2 0  9992,2 50180  53.2175   9.5505 0002015  36.8808  74.9126 15.08821070  1309,6917.938,95.439,541.197,538.409,0.0
50180.0,STARLINK-3265,PAYLOAD,2022-05-19 22:00:00,15.08815904,0.0002096,53.2176,8.0561,35.4756,87.7818,0.00041643,6.341e-05,0.0,0 STARLINK-3265,1 50180U 21125AA  22139.91667824  .00006341  00000-0  41643-3 0  9990,2 50180  53.2176   8.0561 0002096  35.4756  87.7818 15.08815904 23709,6917.954000000002,95.439,541.269,538.369,0.0
50180.0,STARLINK-3265,PAYLOAD,2022-05-20 14:00:01,15.08845848,0.0001959,53.2179,5.0614,38.5121,107.9142,0.0021982,0.00034876,0.0,0 STARLINK-3265,1 50180U 21125AA  22140.58334491  .00034876  00000-0  21982-2 0  9993,2 50180  53.2179   5.0614 0001959  38.5121 107.9142 15.08845848 23801,6917.863,95.437,541.0830000000002,538.372,0.0
50180.0,STARLINK-3265,PAYLOAD,2022-05-20 22:00:00,15.08863756,0.0002169,53.218,3.5668,34.8671,123.1769,-0.0031596,-0.00050257,0.0,0 STARLINK-3265,1 50180U 21125AA  22140.91667824 -.00050257  00000-0 -31596-2 0  9994,2 50180  53.2180   3.5668 0002169  34.8671 123.1769 15.08863756 23856,6917.808000000001,95.436,541.173,538.172,0.0
50180.0,STARLINK-3265,PAYLOAD,2022-05-21 06:00:00,15.08842345,0.0002163,53.218,2.0697,34.9647,134.6814,-0.00055881,-9.172e-05,0.0,0 STARLINK-3265,1 50180U 21125AA  22141.25001157 -.00009172  00000-0 -55881-3 0  9997,2 50180  53.2180   2.0697 0002163  34.9647 134.6814 15.08842345  1305,6917.873000000001,95.437,541.235,538.242,0.0
50180.0,STARLINK-3265,PAYLOAD,2022-05-21 14:00:01,15.08847034,0.0002094,53.2185,0.5722,41.4629,139.8371,-0.00049511,-8.161e-05,0.0,0 STARLINK-3265,1 50180U 21125AA  22141.58335648 -.00008161  00000-0 -49511-3 0  9998,2 50180  53.2185   0.5722 0002094  41.4629 139.8371 15.08847034 23958,6917.859,95.437,541.172,538.275,0.0
50180.0,STARLINK-3265,PAYLOAD,2022-05-21 22:00:00,15.08832029,0.0002367,53.2183,359.0751,38.1483,154.6979,0.0001681,2.387e-05,0.0,0 STARLINK-3265,1 50180U 21125AA  22141.91667824  .00002387  00000-0  16810-3 0  9997,2 50180  53.2183 359.0751 0002367  38.1483 154.6979 15.08832029  1306,6917.905,95.438,541.4069999999998,538.132,0.0
50180.0,STARLINK-3265,PAYLOAD,2022-05-22 14:00:01,15.08843303,0.0002133,53.219,356.0833,42.6923,173.3388,-0.00027683,-4.692e-05,0.0,0 STARLINK-3265,1 50180U 21125AA  22142.58334491 -.00004692  00000-0 -27683-3 0  9995,2 50180  53.2190 356.0833 0002133  42.6923 173.3388 15.08843303  1301,6917.87,95.437,541.211,538.26,0.0
